<?xml version="1.0" encoding="UTF-8"?>
<ndm xmlns:xsi="http://www.w3.org/2001/XMLSchema-instance" xsi:noNamespaceSchemaLocation="https://sanaregistry.org/r/ndmxml_unqualified/ndmxml-2.0.0-master-2.0.xsd">
<omm id="CCSDS_OMM_VERS" version="2.0">
<header><CREATION_DATE/><ORIGINATOR/></header><body><segment><metadata><OBJECT_NAME>ORBCOMM-X</OBJECT_NAME><OBJECT_ID>1991-050C</OBJECT_ID><CENTER_NAME>EARTH</CENTER_NAME><REF_FRAME>TEME</REF_FRAME><TIME_SYSTEM>UTC</TIME_SYSTEM><MEAN_ELEMENT_THEORY>SGP4</MEAN_ELEMENT_THEORY></metadata><data><meanElements><EPOCH>2024-10-21T04:01:02.294688</EPOCH><MEAN_MOTION>14.42834528</MEAN_MOTION><ECCENTRICITY>.0003737</ECCENTRICITY><INCLINATION>98.3763</INCLINATION><RA_OF_ASC_NODE>0.2986</RA_OF_ASC_NODE><ARG_OF_PERICENTER>171.1841</ARG_OF_PERICENTER><MEAN_ANOMALY>188.9415</MEAN_ANOMALY></meanElements><tleParameters><EPHEMERIS_TYPE>0</EPHEMERIS_TYPE><CLASSIFICATION_TYPE>U</CLASSIFICATION_TYPE><NORAD_CAT_ID>21576</NORAD_CAT_ID><ELEMENT_SET_NO>999</ELEMENT_SET_NO><REV_AT_EPOCH>74764</REV_AT_EPOCH><BSTAR>.30449E-3</BSTAR><MEAN_MOTION_DOT>.973E-5</MEAN_MOTION_DOT><MEAN_MOTION_DDOT>0</MEAN_MOTION_DDOT></tleParameters></data></segment></body></omm>
<omm id="CCSDS_OMM_VERS" version="2.0">
<header><CREATION_DATE/><ORIGINATOR/></header><body><segment><metadata><OBJECT_NAME>ORBCOMM FM01</OBJECT_NAME><OBJECT_ID>1995-017A</OBJECT_ID><CENTER_NAME>EARTH</CENTER_NAME><REF_FRAME>TEME</REF_FRAME><TIME_SYSTEM>UTC</TIME_SYSTEM><MEAN_ELEMENT_THEORY>SGP4</MEAN_ELEMENT_THEORY></metadata><data><meanElements><EPOCH>2024-10-21T05:14:10.257792</EPOCH><MEAN_MOTION>14.84003600</MEAN_MOTION><ECCENTRICITY>.0008227</ECCENTRICITY><INCLINATION>69.9655</INCLINATION><RA_OF_ASC_NODE>307.6521</RA_OF_ASC_NODE><ARG_OF_PERICENTER>315.6940</ARG_OF_PERICENTER><MEAN_ANOMALY>44.3552</MEAN_ANOMALY></meanElements><tleParameters><EPHEMERIS_TYPE>0</EPHEMERIS_TYPE><CLASSIFICATION_TYPE>U</CLASSIFICATION_TYPE><NORAD_CAT_ID>23545</NORAD_CAT_ID><ELEMENT_SET_NO>999</ELEMENT_SET_NO><REV_AT_EPOCH>57697</REV_AT_EPOCH><BSTAR>.17525E-2</BSTAR><MEAN_MOTION_DOT>.14572E-3</MEAN_MOTION_DOT><MEAN_MOTION_DDOT>0</MEAN_MOTION_DDOT></tleParameters></data></segment></body></omm>
<omm id="CCSDS_OMM_VERS" version="2.0">
<header><CREATION_DATE/><ORIGINATOR/></header><body><segment><metadata><OBJECT_NAME>ORBCOMM FM02</OBJECT_NAME><OBJECT_ID>1995-017B</OBJECT_ID><CENTER_NAME>EARTH</CENTER_NAME><REF_FRAME>TEME</REF_FRAME><TIME_SYSTEM>UTC</TIME_SYSTEM><MEAN_ELEMENT_THEORY>SGP4</MEAN_ELEMENT_THEORY></metadata><data><meanElements><EPOCH>2024-10-21T13:14:07.844352</EPOCH><MEAN_MOTION>14.83843859</MEAN_MOTION><ECCENTRICITY>.0010237</ECCENTRICITY><INCLINATION>69.9680</INCLINATION><RA_OF_ASC_NODE>326.4869</RA_OF_ASC_NODE><ARG_OF_PERICENTER>315.1284</ARG_OF_PERICENTER><MEAN_ANOMALY>44.9039</MEAN_ANOMALY></meanElements><tleParameters><EPHEMERIS_TYPE>0</EPHEMERIS_TYPE><CLASSIFICATION_TYPE>U</CLASSIFICATION_TYPE><NORAD_CAT_ID>23546</NORAD_CAT_ID><ELEMENT_SET_NO>999</ELEMENT_SET_NO><REV_AT_EPOCH>57666</REV_AT_EPOCH><BSTAR>.20441E-2</BSTAR><MEAN_MOTION_DOT>.16956E-3</MEAN_MOTION_DOT><MEAN_MOTION_DDOT>0</MEAN_MOTION_DDOT></tleParameters></data></segment></body></omm>
<omm id="CCSDS_OMM_VERS" version="2.0">
<header><CREATION_DATE/><ORIGINATOR/></header><body><segment><metadata><OBJECT_NAME>ORBCOMM FM08</OBJECT_NAME><OBJECT_ID>1997-084A</OBJECT_ID><CENTER_NAME>EARTH</CENTER_NAME><REF_FRAME>TEME</REF_FRAME><TIME_SYSTEM>UTC</TIME_SYSTEM><MEAN_ELEMENT_THEORY>SGP4</MEAN_ELEMENT_THEORY></metadata><data><meanElements><EPOCH>2024-10-21T21:02:21.613056</EPOCH><MEAN_MOTION>14.43960140</MEAN_MOTION><ECCENTRICITY>.0006921</ECCENTRICITY><INCLINATION>45.0143</INCLINATION><RA_OF_ASC_NODE>70.4706</RA_OF_ASC_NODE><ARG_OF_PERICENTER>140.7240</ARG_OF_PERICENTER><MEAN_ANOMALY>219.4114</MEAN_ANOMALY></meanElements><tleParameters><EPHEMERIS_TYPE>0</EPHEMERIS_TYPE><CLASSIFICATION_TYPE>U</CLASSIFICATION_TYPE><NORAD_CAT_ID>25112</NORAD_CAT_ID><ELEMENT_SET_NO>999</ELEMENT_SET_NO><REV_AT_EPOCH>40690</REV_AT_EPOCH><BSTAR>.14645E-2</BSTAR><MEAN_MOTION_DOT>.491E-4</MEAN_MOTION_DOT><MEAN_MOTION_DDOT>0</MEAN_MOTION_DDOT></tleParameters></data></segment></body></omm>
<omm id="CCSDS_OMM_VERS" version="2.0">
<header><CREATION_DATE/><ORIGINATOR/></header><body><segment><metadata><OBJECT_NAME>ORBCOMM FM10</OBJECT_NAME><OBJECT_ID>1997-084B</OBJECT_ID><CENTER_NAME>EARTH</CENTER_NAME><REF_FRAME>TEME</REF_FRAME><TIME_SYSTEM>UTC</TIME_SYSTEM><MEAN_ELEMENT_THEORY>SGP4</MEAN_ELEMENT_THEORY></metadata><data><meanElements><EPOCH>2024-10-21T21:30:27.072288</EPOCH><MEAN_MOTION>14.43835099</MEAN_MOTION><ECCENTRICITY>.0003944</ECCENTRICITY><INCLINATION>45.0151</INCLINATION><RA_OF_ASC_NODE>72.3900</RA_OF_ASC_NODE><ARG_OF_PERICENTER>114.9322</ARG_OF_PERICENTER><MEAN_ANOMALY>245.1939</MEAN_ANOMALY></meanElements><tleParameters><EPHEMERIS_TYPE>0</EPHEMERIS_TYPE><CLASSIFICATION_TYPE>U</CLASSIFICATION_TYPE><NORAD_CAT_ID>25113</NORAD_CAT_ID><ELEMENT_SET_NO>999</ELEMENT_SET_NO><REV_AT_EPOCH>58205</REV_AT_EPOCH><BSTAR>.16511E-2</BSTAR><MEAN_MOTION_DOT>.5539E-4</MEAN_MOTION_DOT><MEAN_MOTION_DDOT>0</MEAN_MOTION_DDOT></tleParameters></data></segment></body></omm>
<omm id="CCSDS_OMM_VERS" version="2.0">
<header><CREATION_DATE/><ORIGINATOR/></header><body><segment><metadata><OBJECT_NAME>ORBCOMM FM11</OBJECT_NAME><OBJECT_ID>1997-084C</OBJECT_ID><CENTER_NAME>EARTH</CENTER_NAME><REF_FRAME>TEME</REF_FRAME><TIME_SYSTEM>UTC</TIME_SYSTEM><MEAN_ELEMENT_THEORY>SGP4</MEAN_ELEMENT_THEORY></metadata><data><meanElements><EPOCH>2024-10-21T20:41:54.158496</EPOCH><MEAN_MOTION>14.43644584</MEAN_MOTION><ECCENTRICITY>.0004769</ECCENTRICITY><INCLINATION>45.0138</INCLINATION><RA_OF_ASC_NODE>72.7864</RA_OF_ASC_NODE><ARG_OF_PERICENTER>111.8253</ARG_OF_PERICENTER><MEAN_ANOMALY>248.3106</MEAN_ANOMALY></meanElements><tleParameters><EPHEMERIS_TYPE>0</EPHEMERIS_TYPE><CLASSIFICATION_TYPE>U</CLASSIFICATION_TYPE><NORAD_CAT_ID>25114</NORAD_CAT_ID><ELEMENT_SET_NO>999</ELEMENT_SET_NO><REV_AT_EPOCH>40701</REV_AT_EPOCH><BSTAR>.14694E-2</BSTAR><MEAN_MOTION_DOT>.4893E-4</MEAN_MOTION_DOT><MEAN_MOTION_DDOT>0</MEAN_MOTION_DDOT></tleParameters></data></segment></body></omm>
<omm id="CCSDS_OMM_VERS" version="2.0">
<header><CREATION_DATE/><ORIGINATOR/></header><body><segment><metadata><OBJECT_NAME>ORBCOMM FM12</OBJECT_NAME><OBJECT_ID>1997-084D</OBJECT_ID><CENTER_NAME>EARTH</CENTER_NAME><REF_FRAME>TEME</REF_FRAME><TIME_SYSTEM>UTC</TIME_SYSTEM><MEAN_ELEMENT_THEORY>SGP4</MEAN_ELEMENT_THEORY></metadata><data><meanElements><EPOCH>2024-10-21T09:52:14.139264</EPOCH><MEAN_MOTION>14.43606799</MEAN_MOTION><ECCENTRICITY>.0003855</ECCENTRICITY><INCLINATION>45.0145</INCLINATION><RA_OF_ASC_NODE>74.6974</RA_OF_ASC_NODE><ARG_OF_PERICENTER>114.4060</ARG_OF_PERICENTER><MEAN_ANOMALY>245.7194</MEAN_ANOMALY></meanElements><tleParameters><EPHEMERIS_TYPE>0</EPHEMERIS_TYPE><CLASSIFICATION_TYPE>U</CLASSIFICATION_TYPE><NORAD_CAT_ID>25115</NORAD_CAT_ID><ELEMENT_SET_NO>999</ELEMENT_SET_NO><REV_AT_EPOCH>40674</REV_AT_EPOCH><BSTAR>.12286E-2</BSTAR><MEAN_MOTION_DOT>.4064E-4</MEAN_MOTION_DOT><MEAN_MOTION_DDOT>0</MEAN_MOTION_DDOT></tleParameters></data></segment></body></omm>
<omm id="CCSDS_OMM_VERS" version="2.0">
<header><CREATION_DATE/><ORIGINATOR/></header><body><segment><metadata><OBJECT_NAME>ORBCOMM FM09</OBJECT_NAME><OBJECT_ID>1997-084E</OBJECT_ID><CENTER_NAME>EARTH</CENTER_NAME><REF_FRAME>TEME</REF_FRAME><TIME_SYSTEM>UTC</TIME_SYSTEM><MEAN_ELEMENT_THEORY>SGP4</MEAN_ELEMENT_THEORY></metadata><data><meanElements><EPOCH>2024-10-21T10:15:17.066304</EPOCH><MEAN_MOTION>14.43547077</MEAN_MOTION><ECCENTRICITY>.0004484</ECCENTRICITY><INCLINATION>45.0150</INCLINATION><RA_OF_ASC_NODE>75.3645</RA_OF_ASC_NODE><ARG_OF_PERICENTER>90.8581</ARG_OF_PERICENTER><MEAN_ANOMALY>269.2784</MEAN_ANOMALY></meanElements><tleParameters><EPHEMERIS_TYPE>0</EPHEMERIS_TYPE><CLASSIFICATION_TYPE>U</CLASSIFICATION_TYPE><NORAD_CAT_ID>25116</NORAD_CAT_ID><ELEMENT_SET_NO>999</ELEMENT_SET_NO><REV_AT_EPOCH>40695</REV_AT_EPOCH><BSTAR>.13256E-2</BSTAR><MEAN_MOTION_DOT>.4391E-4</MEAN_MOTION_DOT><MEAN_MOTION_DDOT>0</MEAN_MOTION_DDOT></tleParameters></data></segment></body></omm>

</ndm>
