ORBCOMM-X               
1 21576U 91050C   24295.16738767  .00000973  00000+0  30449-3 0  9994
2 21576  98.3763   0.2986 0003737 171.1841 188.9415 14.42834528747642
ORBCOMM FM01            
1 23545U 95017A   24295.21817428  .00014572  00000+0  17525-2 0  9996
2 23545  69.9655 307.6521 0008227 315.6940  44.3552 14.84003600576975
ORBCOMM FM02            
1 23546U 95017B   24295.55147968  .00016956  00000+0  20441-2 0  9998
2 23546  69.9680 326.4869 0010237 315.1284  44.9039 14.83843859576667
ORBCOMM FM08            
1 25112U 97084A   24295.87663904  .00004910  00000+0  14645-2 0  9999
2 25112  45.0143  70.4706 0006921 140.7240 219.4114 14.43960140406903
ORBCOMM FM10            
1 25113U 97084B   24295.89614667  .00005539  00000+0  16511-2 0  9996
2 25113  45.0151  72.3900 0003944 114.9322 245.1939 14.43835099582052
ORBCOMM FM11            
1 25114U 97084C   24295.86243239  .00004893  00000+0  14694-2 0  9999
2 25114  45.0138  72.7864 0004769 111.8253 248.3106 14.43644584407016
ORBCOMM FM12            
1 25115U 97084D   24295.41127476  .00004064  00000+0  12286-2 0  9990
2 25115  45.0145  74.6974 0003855 114.4060 245.7194 14.43606799406741
ORBCOMM FM09            
1 25116U 97084E   24295.42728086  .00004391  00000+0  13256-2 0  9997
2 25116  45.0150  75.3645 0004484  90.8581 269.2784 14.43547077406957
